[{"OBJECT_NAME":"HULIANWANG DIGUI-65","OBJECT_ID":"2025-174H","EPOCH":"2026-03-03T22:29:24.483552","MEAN_MOTION":13.24422025,"ECCENTRICITY":0.00012138,"INCLINATION":86.4847,"RA_OF_ASC_NODE":287.4622,"ARG_OF_PERICENTER":86.6668,"MEAN_ANOMALY":273.4605,"EPHEMERIS_TYPE":0,"CLASSIFICATION_TYPE":"U","NORAD_CAT_ID":65171,"ELEMENT_SET_NO":999,"REV_AT_EPOCH":2685,"BSTAR":8.1595696e-5,"MEAN_MOTION_DOT":5.0e-7,"MEAN_MOTION_DDOT":0},{"OBJECT_NAME":"HULIANWANG DIGUI-66","OBJECT_ID":"2025-174J","EPOCH":"2026-03-03T22:18:33.868224","MEAN_MOTION":13.24421697,"ECCENTRICITY":0.00012505,"INCLINATION":86.4882,"RA_OF_ASC_NODE":287.5305,"ARG_OF_PERICENTER":89.0647,"MEAN_ANOMALY":271.063,"EPHEMERIS_TYPE":0,"CLASSIFICATION_TYPE":"U","NORAD_CAT_ID":65172,"ELEMENT_SET_NO":999,"REV_AT_EPOCH":2685,"BSTAR":8.3281795e-5,"MEAN_MOTION_DOT":5.0e-7,"MEAN_MOTION_DDOT":0},{"OBJECT_NAME":"HULIANWANG DIGUI-67","OBJECT_ID":"2025-174K","EPOCH":"2026-03-03T22:40:22.007424","MEAN_MOTION":13.24421358,"ECCENTRICITY":0.00012469,"INCLINATION":86.4894,"RA_OF_ASC_NODE":287.5588,"ARG_OF_PERICENTER":87.2753,"MEAN_ANOMALY":272.8523,"EPHEMERIS_TYPE":0,"CLASSIFICATION_TYPE":"U","NORAD_CAT_ID":65173,"ELEMENT_SET_NO":999,"REV_AT_EPOCH":2682,"BSTAR":0.00014888901,"MEAN_MOTION_DOT":7.9e-7,"MEAN_MOTION_DDOT":0},{"OBJECT_NAME":"HULIANWANG DIGUI-68","OBJECT_ID":"2025-178A","EPOCH":"2026-03-03T23:12:48.316032","MEAN_MOTION":13.24423731,"ECCENTRICITY":0.00020405,"INCLINATION":86.4937,"RA_OF_ASC_NODE":49.028,"ARG_OF_PERICENTER":80.6338,"MEAN_ANOMALY":279.5027,"EPHEMERIS_TYPE":0,"CLASSIFICATION_TYPE":"U","NORAD_CAT_ID":65228,"ELEMENT_SET_NO":999,"REV_AT_EPOCH":2638,"BSTAR":5.2514883e-5,"MEAN_MOTION_DOT":3.7e-7,"MEAN_MOTION_DDOT":0},{"OBJECT_NAME":"HULIANWANG DIGUI-69","OBJECT_ID":"2025-178B","EPOCH":"2026-03-03T23:02:21.861600","MEAN_MOTION":13.24417544,"ECCENTRICITY":0.0001972,"INCLINATION":86.4957,"RA_OF_ASC_NODE":49.0651,"ARG_OF_PERICENTER":81.9571,"MEAN_ANOMALY":278.1786,"EPHEMERIS_TYPE":0,"CLASSIFICATION_TYPE":"U","NORAD_CAT_ID":65229,"ELEMENT_SET_NO":999,"REV_AT_EPOCH":2638,"BSTAR":1.7524994e-5,"MEAN_MOTION_DOT":2.2e-7,"MEAN_MOTION_DDOT":0},{"OBJECT_NAME":"HULIANWANG DIGUI-70","OBJECT_ID":"2025-178C","EPOCH":"2026-03-03T22:51:25.428960","MEAN_MOTION":13.24418532,"ECCENTRICITY":0.00020767,"INCLINATION":86.4896,"RA_OF_ASC_NODE":48.9374,"ARG_OF_PERICENTER":80.6945,"MEAN_ANOMALY":279.4424,"EPHEMERIS_TYPE":0,"CLASSIFICATION_TYPE":"U","NORAD_CAT_ID":65230,"ELEMENT_SET_NO":999,"REV_AT_EPOCH":2638,"BSTAR":1.0109357e-5,"MEAN_MOTION_DOT":1.9e-7,"MEAN_MOTION_DDOT":0},{"OBJECT_NAME":"HULIANWANG DIGUI-71","OBJECT_ID":"2025-178D","EPOCH":"2026-03-03T22:40:30.607680","MEAN_MOTION":13.2441948,"ECCENTRICITY":0.00020143,"INCLINATION":86.4955,"RA_OF_ASC_NODE":49.0533,"ARG_OF_PERICENTER":81.8433,"MEAN_ANOMALY":278.2929,"EPHEMERIS_TYPE":0,"CLASSIFICATION_TYPE":"U","NORAD_CAT_ID":65231,"ELEMENT_SET_NO":999,"REV_AT_EPOCH":2638,"BSTAR":2.0020673e-5,"MEAN_MOTION_DOT":2.3e-7,"MEAN_MOTION_DDOT":0},{"OBJECT_NAME":"HULIANWANG DIGUI-72","OBJECT_ID":"2025-178E","EPOCH":"2026-03-03T22:29:34.247616","MEAN_MOTION":13.24419956,"ECCENTRICITY":0.00020098,"INCLINATION":86.4938,"RA_OF_ASC_NODE":49.0141,"ARG_OF_PERICENTER":82.8176,"MEAN_ANOMALY":277.3186,"EPHEMERIS_TYPE":0,"CLASSIFICATION_TYPE":"U","NORAD_CAT_ID":65232,"ELEMENT_SET_NO":999,"REV_AT_EPOCH":2638,"BSTAR":4.75226e-6,"MEAN_MOTION_DOT":1.7e-7,"MEAN_MOTION_DDOT":0},{"OBJECT_NAME":"HULIANWANG DIGUI-73","OBJECT_ID":"2025-187A","EPOCH":"2026-03-03T23:04:05.819808","MEAN_MOTION":13.29342358,"ECCENTRICITY":0.00010504,"INCLINATION":50.0036,"RA_OF_ASC_NODE":223.2657,"ARG_OF_PERICENTER":134.4465,"MEAN_ANOMALY":225.6493,"EPHEMERIS_TYPE":0,"CLASSIFICATION_TYPE":"U","NORAD_CAT_ID":65305,"ELEMENT_SET_NO":999,"REV_AT_EPOCH":2570,"BSTAR":5.4058279e-5,"MEAN_MOTION_DOT":-9.9e-7,"MEAN_MOTION_DDOT":0},{"OBJECT_NAME":"HULIANWANG DIGUI-74","OBJECT_ID":"2025-187B","EPOCH":"2026-03-03T22:40:00.834240","MEAN_MOTION":13.29342868,"ECCENTRICITY":0.00010457,"INCLINATION":50.0079,"RA_OF_ASC_NODE":223.2446,"ARG_OF_PERICENTER":134.5139,"MEAN_ANOMALY":225.5818,"EPHEMERIS_TYPE":0,"CLASSIFICATION_TYPE":"U","NORAD_CAT_ID":65306,"ELEMENT_SET_NO":999,"REV_AT_EPOCH":2570,"BSTAR":5.8983734e-5,"MEAN_MOTION_DOT":-9.7e-7,"MEAN_MOTION_DDOT":0},{"OBJECT_NAME":"HULIANWANG DIGUI-75","OBJECT_ID":"2025-187C","EPOCH":"2026-03-03T22:16:02.631072","MEAN_MOTION":13.29341952,"ECCENTRICITY":0.00010431,"INCLINATION":50.0071,"RA_OF_ASC_NODE":223.1463,"ARG_OF_PERICENTER":133.8361,"MEAN_ANOMALY":226.2597,"EPHEMERIS_TYPE":0,"CLASSIFICATION_TYPE":"U","NORAD_CAT_ID":65307,"ELEMENT_SET_NO":999,"REV_AT_EPOCH":2570,"BSTAR":4.7460306e-5,"MEAN_MOTION_DOT":-1.02e-6,"MEAN_MOTION_DDOT":0},{"OBJECT_NAME":"HULIANWANG DIGUI-76","OBJECT_ID":"2025-187D","EPOCH":"2026-03-03T21:52:15.368736","MEAN_MOTION":13.2933924,"ECCENTRICITY":0.00010388,"INCLINATION":49.9995,"RA_OF_ASC_NODE":223.6,"ARG_OF_PERICENTER":130.6457,"MEAN_ANOMALY":229.4505,"EPHEMERIS_TYPE":0,"CLASSIFICATION_TYPE":"U","NORAD_CAT_ID":65308,"ELEMENT_SET_NO":999,"REV_AT_EPOCH":2569,"BSTAR":5.1940428e-5,"MEAN_MOTION_DOT":-1.0e-6,"MEAN_MOTION_DDOT":0},{"OBJECT_NAME":"HULIANWANG DIGUI-77","OBJECT_ID":"2025-187E","EPOCH":"2026-03-03T21:40:01.079328","MEAN_MOTION":13.29341099,"ECCENTRICITY":0.00010774,"INCLINATION":50.003,"RA_OF_ASC_NODE":223.6093,"ARG_OF_PERICENTER":131.5026,"MEAN_ANOMALY":228.5938,"EPHEMERIS_TYPE":0,"CLASSIFICATION_TYPE":"U","NORAD_CAT_ID":65309,"ELEMENT_SET_NO":999,"REV_AT_EPOCH":2569,"BSTAR":4.1229458e-5,"MEAN_MOTION_DOT":-1.05e-6,"MEAN_MOTION_DDOT":0},{"OBJECT_NAME":"HULIANWANG DIGUI-78","OBJECT_ID":"2025-187F","EPOCH":"2026-03-03T22:28:07.710240","MEAN_MOTION":13.29341658,"ECCENTRICITY":0.0001026,"INCLINATION":50.0095,"RA_OF_ASC_NODE":223.2275,"ARG_OF_PERICENTER":135.1153,"MEAN_ANOMALY":224.9802,"EPHEMERIS_TYPE":0,"CLASSIFICATION_TYPE":"U","NORAD_CAT_ID":65310,"ELEMENT_SET_NO":999,"REV_AT_EPOCH":2570,"BSTAR":6.5799341e-5,"MEAN_MOTION_DOT":-9.4e-7,"MEAN_MOTION_DDOT":0},{"OBJECT_NAME":"HULIANWANG DIGUI-79","OBJECT_ID":"2025-187G","EPOCH":"2026-03-03T22:03:51.133248","MEAN_MOTION":13.29343068,"ECCENTRICITY":0.00010443,"INCLINATION":50.0024,"RA_OF_ASC_NODE":223.6874,"ARG_OF_PERICENTER":131.317,"MEAN_ANOMALY":228.7792,"EPHEMERIS_TYPE":0,"CLASSIFICATION_TYPE":"U","NORAD_CAT_ID":65311,"ELEMENT_SET_NO":999,"REV_AT_EPOCH":2569,"BSTAR":4.9628694e-5,"MEAN_MOTION_DOT":-1.01e-6,"MEAN_MOTION_DDOT":0},{"OBJECT_NAME":"HULIANWANG DIGUI-80","OBJECT_ID":"2025-187H","EPOCH":"2026-03-03T23:16:12.200160","MEAN_MOTION":13.29341115,"ECCENTRICITY":0.00010651,"INCLINATION":50.0015,"RA_OF_ASC_NODE":223.2747,"ARG_OF_PERICENTER":130.8331,"MEAN_ANOMALY":229.2634,"EPHEMERIS_TYPE":0,"CLASSIFICATION_TYPE":"U","NORAD_CAT_ID":65312,"ELEMENT_SET_NO":999,"REV_AT_EPOCH":2570,"BSTAR":4.6313036e-5,"MEAN_MOTION_DOT":-1.03e-6,"MEAN_MOTION_DDOT":0}]
