HULIANWANG DIGUI-65     
1 65171U 25174H   26062.93708893  .00000050  00000+0  81596-4 0  9999
2 65171  86.4847 287.4622 0001213  86.6668 273.4605 13.24422025 26850
HULIANWANG DIGUI-66     
1 65172U 25174J   26062.92955866  .00000050  00000+0  83282-4 0  9997
2 65172  86.4882 287.5305 0001250  89.0647 271.0630 13.24421697 26850
HULIANWANG DIGUI-67     
1 65173U 25174K   26062.94469916  .00000079  00000+0  14889-3 0  9993
2 65173  86.4894 287.5588 0001246  87.2753 272.8523 13.24421358 26821
HULIANWANG DIGUI-68     
1 65228U 25178A   26062.96722588  .00000037  00000+0  52515-4 0  9990
2 65228  86.4937  49.0280 0002040  80.6338 279.5027 13.24423731 26380
HULIANWANG DIGUI-69     
1 65229U 25178B   26062.95997525  .00000022  00000+0  17525-4 0  9991
2 65229  86.4957  49.0651 0001972  81.9571 278.1786 13.24417544 26383
HULIANWANG DIGUI-70     
1 65230U 25178C   26062.95237765  .00000019  00000+0  10109-4 0  9993
2 65230  86.4896  48.9374 0002076  80.6945 279.4424 13.24418532 26385
HULIANWANG DIGUI-71     
1 65231U 25178D   26062.94479870  .00000023  00000+0  20021-4 0  9997
2 65231  86.4955  49.0533 0002014  81.8433 278.2929 13.24419480 26388
HULIANWANG DIGUI-72     
1 65232U 25178E   26062.93720194  .00000017  00000+0  47523-5 0  9995
2 65232  86.4938  49.0141 0002009  82.8176 277.3186 13.24419956 26387
HULIANWANG DIGUI-73     
1 65305U 25187A   26062.96117847 -.00000099  00000+0  54058-4 0  9995
2 65305  50.0036 223.2657 0001050 134.4465 225.6493 13.29342358 25700
HULIANWANG DIGUI-74     
1 65306U 25187B   26062.94445410 -.00000097  00000+0  58984-4 0  9994
2 65306  50.0079 223.2446 0001045 134.5139 225.5818 13.29342868 25703
HULIANWANG DIGUI-75     
1 65307U 25187C   26062.92780823 -.00000102  00000+0  47460-4 0  9997
2 65307  50.0071 223.1463 0001043 133.8361 226.2597 13.29341952 25706
HULIANWANG DIGUI-76     
1 65308U 25187D   26062.91128899 -.00000100  00000+0  51940-4 0  9992
2 65308  49.9995 223.6000 0001038 130.6457 229.4505 13.29339240 25695
HULIANWANG DIGUI-77     
1 65309U 25187E   26062.90279027 -.00000105  00000+0  41229-4 0  9996
2 65309  50.0030 223.6093 0001077 131.5026 228.5938 13.29341099 25691
HULIANWANG DIGUI-78     
1 65310U 25187F   26062.93620035 -.00000094  00000+0  65799-4 0  9995
2 65310  50.0095 223.2275 0001026 135.1153 224.9802 13.29341658 25700
HULIANWANG DIGUI-79     
1 65311U 25187G   26062.91934182 -.00000101  00000+0  49629-4 0  9998
2 65311  50.0024 223.6874 0001044 131.3170 228.7792 13.29343068 25694
HULIANWANG DIGUI-80     
1 65312U 25187H   26062.96958565 -.00000103  00000+0  46313-4 0  9994
2 65312  50.0015 223.2747 0001065 130.8331 229.2634 13.29341115 25700
